CMS-01                  
1 47256U 20099A   22045.09383214 -.00000162  00000+0  00000+0 0  9995
2 47256   0.0751 273.7849 0007284   6.3174 340.7551  1.00271559  4303
ONEWEB-0102             
1 47258U 20100A   22045.15459868  .00000247  00000+0  65001-3 0  9995
2 47258  87.8877 305.5451 0001635  89.7350 270.3965 13.12449445 56957
ONEWEB-0109             
1 47259U 20100B   22044.78495995  .00000439  00000+0  11849-2 0  9998
2 47259  87.8992 305.5638 0001770  85.4791 274.6540 13.12444401 56734
ONEWEB-0110             
1 47260U 20100C   22044.65558204 -.00000162  00000+0 -48467-3 0  9991
2 47260  87.8898 305.6031 0001707  94.3851 265.7473 13.12440897 56882
ONEWEB-0111             
1 47261U 20100D   22044.45692629 -.00000023  00000+0 -98199-4 0  9994
2 47261  87.8901 305.6720 0001628  88.4284 271.7031 13.12442688 56695
ONEWEB-0114             
1 47262U 20100E   22044.79420912  .00000311  00000+0  82896-3 0  9990
2 47262  87.8963 305.5115 0002098  83.5173 276.6195 13.12442242 56697
ONEWEB-0117             
1 47263U 20100F   22045.16845851  .00000505  00000+0  13681-2 0  9996
2 47263  87.8985 305.4934 0001686  87.2692 272.8629 13.12442318 56750
ONEWEB-0118             
1 47264U 20100G   22044.74105913 -.00000337  00000+0 -97129-3 0  9993
2 47264  87.8884 305.5780 0002320  66.1479 293.9892 13.12444608 56899
ONEWEB-0119             
1 47265U 20100H   22044.46385345  .00000186  00000+0  48234-3 0  9995
2 47265  87.8876 305.6883 0001686  86.9183 273.2138 13.12444382 56839
ONEWEB-0120             
1 47266U 20100J   22044.79882214  .00000198  00000+0  51569-3 0  9997
2 47266  87.8950 305.6211 0001918  86.0166 274.1182 13.12441072 56908
ONEWEB-0121             
1 47267U 20100K   22044.78264617  .00000398  00000+0  10720-2 0  9993
2 47267  87.8956 305.6877 0001466  86.7249 273.4047 13.12446088 56814
ONEWEB-0122             
1 47268U 20100L   22044.47077207  .00000381  00000+0  10244-2 0  9990
2 47268  87.8958 305.6222 0001696  86.4506 273.6817 13.12443079 56688
ONEWEB-0123             
1 47269U 20100M   22045.15228911  .00000173  00000+0  44477-3 0  9992
2 47269  87.8891 305.5366 0001738  81.8141 278.3185 13.12444750 56917
ONEWEB-0124             
1 47270U 20100N   22045.13842039 -.00000263  00000+0 -76602-3 0  9992
2 47270  87.8860 305.4424 0001210  86.4510 273.6757 13.12443074 56792
ONEWEB-0125             
1 47271U 20100P   22044.73645293 -.00000263  00000+0 -76553-3 0  9996
2 47271  87.8935 305.6760 0001995  83.3844 276.7511 13.12442867 56800
ONEWEB-0126             
1 47272U 20100Q   22044.76069321 -.00000291  00000+0 -84503-3 0  9997
2 47272  87.8891 305.6609 0001846  88.8049 271.3291 13.12444594 56878
ONEWEB-0127             
1 47273U 20100R   22044.72490105  .00000119  00000+0  29625-3 0  9993
2 47273  87.8867 305.5424 0001717  80.2958 279.8364 13.12441606 56895
ONEWEB-0128             
1 47274U 20100S   22044.74567971 -.00000390  00000+0 -11193-2 0  9995
2 47274  87.8888 305.5721 0001513  97.2710 262.8591 13.12442922 56916
ONEWEB-0129             
1 47275U 20100T   22045.18462982  .00000178  00000+0  45845-3 0  9995
2 47275  87.8984 305.4792 0003383  83.2289 276.9225 13.12440809 56905
ONEWEB-0130             
1 47276U 20100U   22044.44767606 -.00000330  00000+0 -95263-3 0  9996
2 47276  87.8924 305.6821 0001508  88.4815 271.6486 13.12442040 56779
ONEWEB-0131             
1 47277U 20100V   22045.13149777 -.00000353  00000+0 -10159-2 0  9992
2 47277  87.8922 305.4933 0001439  84.3919 275.7373 13.12444218 56907
ONEWEB-0132             
1 47278U 20100W   22045.16153317  .00000407  00000+0  10953-2 0  9991
2 47278  87.8882 305.5604 0001956  84.0986 276.0365 13.12442525 56807
ONEWEB-0133             
1 47279U 20100X   22044.41532643  .00000292  00000+0  77565-3 0  9997
2 47279  87.8906 305.6256 0001698  83.4839 276.6483 13.12440887 56864
ONEWEB-0134             
1 47280U 20100Y   22045.14535693 -.00000053  00000+0 -18320-3 0  9999
2 47280  87.8874 305.4783 0001556  94.0154 266.1153 13.12445189 56930
ONEWEB-0135             
1 47281U 20100Z   22044.73413050 -.00000250  00000+0 -73088-3 0  9997
2 47281  87.8881 305.5533 0001760  87.3428 272.7902 13.12432872 56906
ONEWEB-0136             
1 47282U 20100AA  22044.44997238 -.00000288  00000+0 -83514-3 0  9997
2 47282  87.8971 305.6331 0002080 109.1737 250.9617 13.12443358 56795
ONEWEB-0137             
1 47283U 20100AB  22044.48695665  .00000280  00000+0  74244-3 0  9991
2 47283  87.8864 305.6565 0001951  81.8428 278.2922 13.12443020 56704
ONEWEB-0138             
1 47284U 20100AC  22045.14767272 -.00000021  00000+0 -94564-4 0  9993
2 47284  87.8868 305.5175 0001855  90.0471 270.0870 13.12444390 56879
ONEWEB-0139             
1 47285U 20100AD  22044.73875524 -.00000300  00000+0 -86868-3 0  9995
2 47285  87.8921 305.6861 0001715  93.6793 266.4531 13.12442357 56890
ONEWEB-0140             
1 47286U 20100AE  22045.14072102 -.00000162  00000+0 -48488-3 0  9995
2 47286  87.8899 305.5447 0001720  90.1144 270.0182 13.12441600 56907
ONEWEB-0141             
1 47287U 20100AF  22045.13263971 -.00000547  00000+0 -15565-2 0  9997
2 47287  87.8873 305.5165 0001653  86.4329 273.6989 13.12443383 56897
ONEWEB-0142             
1 47288U 20100AG  22044.77225789  .00000224  00000+0  58667-3 0  9993
2 47288  87.8887 305.6876 0002021  84.2484 275.8875 13.12445050 56847
ONEWEB-0143             
1 47289U 20100AH  22044.80575602  .00000018  00000+0  14588-4 0  9996
2 47289  87.8920 305.5836 0001631  84.6905 275.4410 13.12444072 56821
ONEWEB-0144             
1 47290U 20100AJ  22044.77803282  .00000372  00000+0  99990-3 0  9994
2 47290  87.8964 305.5430 0001568  89.2822 270.8486 13.12442876 56742
ONEWEB-0145             
1 47291U 20100AK  22045.12917436 -.00000524  00000+0 -14922-2 0  9994
2 47291  87.8895 305.5233 0001772  83.3190 276.8140 13.12442584 56982
ONEWEB-0146             
1 47292U 20100AL  22044.74337980 -.00000422  00000+0 -12076-2 0  9997
2 47292  87.8882 305.6161 0000762  54.5947 305.5253 13.12441531 56849
ONEWEB-0147             
1 47293U 20100AM  22045.17075887  .00000458  00000+0  12371-2 0  9996
2 47293  87.8899 305.5403 0002144 100.4342 259.7028 13.12446135 56791
YUANGUANG               
1 47296U 20102A   22045.12413404  .00006926  00000+0  31999-3 0  9991
2 47296  97.4301 143.9674 0007785 155.3618 323.5539 15.20475463 63617
HAISI 1                 
1 47297U 20102B   22045.09832605  .00001850  00000+0  88803-4 0  9994
2 47297  97.4294 144.0469 0007047 138.3795 342.4654 15.20101605 63602
XJY-7                   
1 47298U 20102C   22045.27774964  .00009589  00000+0  40150-3 0  9997
2 47298  97.3896 144.4718 0002721 131.3788 287.8132 15.23753130 63804
TIANQI-8                
1 47299U 20102D   22045.12264098  .00006525  00000+0  29379-3 0  9991
2 47299  97.4305 144.5718 0005991 123.2902 354.8220 15.21396794 63644
ET-SMART-RSS            
1 47300U 20102E   22045.07466006  .00010773  00000+0  45762-3 0  9995
2 47300  97.4318 145.2797 0005544  93.2641  25.9794 15.23227050 63682
YAOGAN 33               
1 47302U 20103A   22045.19112795  .00000284  00000+0  70019-4 0  9994
2 47302  98.2268 297.4361 0001837  71.7724 288.3677 14.59239492 60311
WEINA 2                 
1 47303U 20103B   22045.17487440  .00000558  00000+0  12814-3 0  9997
2 47303  98.2287 297.5379 0001289  86.2127 273.9221 14.59233746 60313
TURKSAT 5A              
1 47306U 21001A   22045.15515931  .00000157  00000+0  00000+0 0  9998
2 47306   0.0160 105.7031 0000278 193.7753 291.4182  1.00271182  4102
CAPE-3                  
1 47309U 21002A   22045.16503598  .00007189  00000+0  31750-3 0  9991
2 47309  60.6856 107.4190 0024763 183.7762 176.3142 15.22428108 59667
POLARCUBE               
1 47310U 21002B   22044.54504352  .00011750  00000+0  48531-3 0  9997
2 47310  60.6834 107.7264 0021401 180.8838 179.2215 15.24252702 59589
RADFXSAT-2 (AO-109)     
1 47311U 21002C   22044.48331449  .00006565  00000+0  28515-3 0  9994
2 47311  60.6867 108.1123 0022327 176.0756 184.0511 15.23169949 59569
2021-002D               
1 47312U 21002D   22045.15773820  .00094898  00000+0  24168-2 0  9998
2 47312  60.6805  95.3123 0010641 138.4595 221.7311 15.38902287 59853
PROMETHEUS 2-11         
1 47313U 21002E   22044.55658058  .00014160  00000+0  55574-3 0  9997
2 47313  60.6855 104.9653 0023962 169.6182 190.5406 15.25766583 59628
MITEE-1                 
1 47314U 21002F   22044.50957620  .00013491  00000+0  52746-3 0  9994
2 47314  60.6843 104.1502 0024270 164.8610 195.3210 15.25922197 59651
2021-002G               
1 47315U 21002G   22044.53567230  .00007417  00000+0  30361-3 0  9992
2 47315  60.6850 104.2795 0024183 162.8015 197.3898 15.24983878 59651
2021-002J               
1 47317U 21002J   22044.50410685  .00007003  00000+0  31050-3 0  9999
2 47317  60.6856 109.8510 0025015 182.8516 177.2433 15.22324916 59537
2021-002K               
1 47318U 21002K   22044.89236253  .00006203  00000+0  27630-3 0  9999
2 47318  60.6856 108.3452 0024970 183.2338 176.8592 15.22336961 59593
CP12 (EXOCUBE 2)        
1 47319U 21002L   22044.51400680  .00006826  00000+0  29942-3 0  9995
2 47319  60.6853 108.7789 0022472 179.2312 180.8814 15.22775844 59522
TIANTONG-1 3            
1 47321U 21003A   22045.16527662 -.00000147  00000+0  00000+0 0  9992
2 47321   4.6963 308.4509 0004217  18.0353 318.6751  1.00273461  4087
PROMETHEUS 2-8          
1 47345U 21002N   22044.55457088  .00014251  00000+0  55861-3 0  9992
2 47345  60.6852 104.9524 0023889 169.6400 190.5186 15.25803564 59365
GMS-T                   
1 47346U 21004A   22045.03877998 -.00000016  00000+0 -64200-4 0  9999
2 47346  90.0160 230.2803 0003839  56.3491 303.8004 13.16598140 51272
STARLINK-1952           
1 47349U 21005A   22044.85087289 -.00014381  00000+0 -84137-4 0  9999
2 47349  53.0430 172.3442 0004778 317.5163  42.5486 15.76665400 60958
